#dP2020  1 26  0  0  0.00000000      96 __u+U ITR00 FIT  IAC
## 2090      0.00000000   900.00000000 58874 0.0000000000000
+  106   C06C07C08C09C10C11C12C13C14C16C19C20C21C22C23C24C25
+        C26C27C28C29C30C32C33C34C35C36C37E01E02E03E04E05E07
+        E08E09E11E12E13E14E15E18E19E21E24E25E26E27E30E31E33
+        E36G01G02G03G04G05G06G07G08G09G10G11G12G13G14G15G16
+        G17G18G19G20G21G22G23G24G25G26G27G28G29G30G31G32R01
+        R02R03R04R05R07R08R09R11R12R13R14R15R16R17R18R19R20
+        R21R22R23R26  0  0  0  0  0  0  0  0  0  0  0  0  0
++         8  9  9  8  8  8  8  8  7  8  8  8  7  8  8  8  8
++         8  8  8  8  8  8  8  8  8  8  8  4  4  4  4  4  4
++         4  4  4  4  3  4  4  4  4  4  4  4  4  4  4  4  4
++         4  3  3  4  4  3  3  3  3  3  3  3  4  3  4  3  3
++         3  3  3  4  4  3  4  4  4  3  3  3  4  3  3  4  6
++         5  5  5  5  5  6  5  5  5  6  6  5  6  6  5  6  6
++         5  5  5  8  0  0  0  0  0  0  0  0  0  0  0  0  0
%c M  cc GPS ccc cccc cccc cccc cccc ccccc ccccc ccccc ccccc
%c cc cc ccc ccc cccc cccc cccc cccc ccccc ccccc ccccc ccccc
%f  0.0000000  0.000000000  0.00000000000  0.000000000000000
%f  0.0000000  0.000000000  0.00000000000  0.000000000000000
%i    0    0    0    0      0      0      0      0         0
%i    0    0    0    0      0      0      0      0         0
/* INFORMATION & ANALYSIS CENTER (IAC)      ULTRA-RAPID DATA
/* S/V CLOCKS ARE ALIGNED TO GNSS TIME                      
/* G:C1WC2W R:C1PC2P E:C1XC5X C:C2IC6I J:C1CC2S             
/* PCV:IGS14_2086 OL/AL:FES2004  NONE     YN ORB:CoN CLK:CoN
*  2020 01 26 11 45  0.00000000
PC06  -5821.767882  31416.722319 -26970.642887    254.647216
PC07 -18330.817652  23792.115541  29618.079337     64.941716
PC08 -20656.315046  36836.560812  -2927.639095    -95.908904
PC09   3863.339777  37973.624888 -17260.928800    288.814047
PC10  -3481.858601  26107.096700  33069.724096   -598.015319
PC11  15732.919972   5665.089587 -22285.027132   -144.055502
PC12  11050.104317  23328.713503 -10594.793562    312.546677
PC13 -11025.321346  37915.219416 -15055.346180    228.804839
PC14  26850.146577   6096.194695   4737.132195   -799.775077
PC16  -3978.063941  32338.110976 -26633.729375   -821.158139
PC19 -24659.960227    823.145381 -13006.048124    308.411835
PC20 -25040.279502 -11702.988848   3762.877571   -614.183358
PC21  10531.156780  17699.908743 -18822.879537    -15.086595
PC22  -9904.352423  13122.768547 -22544.635432   -742.300659
PC23  16828.696320 -20876.934245  -7713.742529   -877.991286
PC24  16690.897612   6056.547422  21512.398025   -909.139915
PC25  23575.475830 -11472.153383   9521.038896   -494.441202
PC26    943.805897  18616.319496  20772.064158    548.074260
PC27  -5617.199974 -27280.438366   1888.305327    267.328371
PC28   6847.680134 -22603.678225 -14850.877456    258.274592
PC29 -15095.243767   5350.679798  22851.945013    179.012445
PC30 -15307.641424 -15658.690324  17315.023359    262.146641
PC32 -10626.635572 -17642.160185  18839.154912   -860.273489
PC33  24705.257277   -919.451564  12960.959779   -829.240357
PC34  15382.241036  15287.300434 -17547.249890   -420.797778
PC35  -6217.960576  22720.988768  14940.906148   -807.944813
PC36 -23839.234082  10785.796873  -9683.392010   -839.854451
PC37     50.281256 -18877.848299 -20529.692305   -902.736760
PE01 -10815.312701 -13533.299750 -24002.371303   -781.607325
PE02  10866.825612  13508.331889  23987.643718    108.389791
PE03  16828.562503  23353.348075  -6931.335869   -259.292483
PE04 -24303.236014 -12568.054357 -11297.543719   -453.151847
PE05   -602.594643  20556.444701 -21293.106983   -410.802608
PE07  17567.192217  -5764.884629  23118.188367   -332.210039
PE08  24349.118068  12300.039262  11500.089742   6229.340399
PE09 -17365.508402   5872.219407 -23238.720312   6176.534903
PE11 -16448.967055  16604.890642  18157.041076    968.544310
PE12 -15417.674068  -5597.169893  24651.462478   5982.580377
PE13  16362.906557 -16487.771873 -18334.637413    397.758162
PE14 -13482.108824 -22047.722859   3351.460986   -881.994340
PE15  15427.574321   5239.862772 -24696.370767    879.499699
PE18  21790.751298  14503.849821 -16865.768981   -978.921124
PE19 -15358.057621 -23692.424432   8893.590038     -1.806340
PE21  11107.728277 -17629.634171 -21022.691633   -579.156206
PE24 -26815.833721  11247.036532   5599.333982   5643.157113
PE25 -11233.308946  17626.642015  20967.331112   -502.202565
PE26   7725.615802 -28557.119178   -913.604125   3602.477649
PE27  26712.650647 -11408.474313  -5660.623241    295.666964
PE30  26497.422489   1747.103285  13048.619918   4193.986166
PE31 -26577.276759  -1473.861159 -12949.073901   -471.460028
PE33  -5447.204382 -23915.320914  16587.819099   -470.749286
PE36  -7715.223651  28549.283643   1236.806356    606.423514
PG01 -14398.714761  22065.749805   1106.965616   -274.700569
PG02  17543.849265  -5721.170612 -18429.774079   -393.092330
PG03 -12514.215833  13178.116191 -19394.534239    -80.424613
PG04  -4796.212526  18687.432009 -18239.329006    -39.846777
PG05  26355.658895  -2458.989779   3084.738554     -6.656580
PG06  12631.838527   7734.711938 -21992.888207   -192.334684
PG07  -1917.961085  22270.917730  14253.424753   -200.517421
PG08 -12072.209229   9076.557869  21866.786052    -21.558576
PG09   4423.395395  23715.201588 -11153.659776   -141.260582
PG10 -17499.887051 -11675.958038  16427.043486   -223.060863
PG11 -11186.725310  20651.555163  12176.623611   -379.220563
PG12  16482.418669 -10667.574019 -18030.346928    158.179787
PG13  15769.406266     20.814363  21259.571891    -17.332678
PG14 -17297.223567 -14075.676602 -14234.802869    -36.434774
PG15  11433.781711 -11040.166570  20947.378378   -255.965321
PG16 -26611.539368   -920.807327   2901.999090   -117.658655
PG17  14336.616918  21643.249862  -5318.241555    205.260721
PG18 -16787.573944  18276.117249   8833.300946    115.820488
PG19  16547.265366  16194.679460 -13299.451306   -207.295156
PG20  -6848.571605 -14813.558262  20891.385572    527.827015
PG21  -1478.904384 -21858.300679  15971.441136    -50.180859
PG22 -19772.160976  11239.096466 -13406.325173   -783.116760
PG23  -3187.049567  19442.127592 -17278.858708   -140.598870
PG24  14408.403778 -21764.100477   3517.173569     -8.124453
PG25   2523.906836 -15062.719863 -21938.068782    -15.125744
PG26 -25410.301530  -4547.499138  -6750.025258    135.294969
PG27 -17152.825791  -3167.312784  20008.795573   -192.525020
PG28  17310.530901  12790.863816  16063.487572    743.065737
PG29  -2474.383165 -23696.840059 -11749.961110    -17.166414
PG30   7392.520357  15624.788822  20144.900653   -138.215227
PG31 -14712.932740  -5164.647886 -21576.643780    -19.062366
PG32 -16227.988328 -20222.935538  -6022.060022    195.460991
PR01  15973.619917  15784.977472 -12112.597520     56.158305
PR02  22382.100068   8574.148791   8680.860577    408.916385
PR03  13804.704367  -3557.342911  21175.949284      8.906612
PR04  -2650.389516 -13335.163617  21604.880652     36.632654
PR05 -17571.741625 -15727.861897   9758.349752     43.833629
PR07 -13436.436124   3839.284746 -21319.283515    -32.459709
PR08   2549.114216  13403.263055 -21501.452049    -50.255730
PR09 -21940.835506   6005.566397 -11465.390640    113.447944
PR11  -8839.872194  15259.891231  18423.869752    -11.317694
PR12   7631.288604   8155.302327  22954.722475    100.212592
PR13  20710.212702  -4175.751011  14270.921726    -34.029639
PR14  21443.135283 -13557.463983  -2679.275637     47.469547
PR15   9807.783316 -15257.080353 -17913.924812    105.768989
PR16  -8395.038150  -7832.272829 -22812.368603     -1.180768
PR17   9001.007943 -14069.113612 -19249.457435    295.628769
PR18   2787.454875 -24836.853271  -5226.405920     22.886632
PR19  -4174.568611 -22480.684649  11313.857840    -75.946593
PR20  -9983.348175  -5530.045607  22832.498430   -402.486430
PR21  -8749.822660  14887.534679  18792.475136   -100.768006
PR22  -1636.373129  25276.719539   2416.199602    -11.397237
PR23   7017.710124  18191.116072 -16445.658814    282.300587
PR26  -9534.443058  -9616.505362  21627.127987   -409.956510
EOF
